var class_tle =
[
    [ "Tle", "class_tle.html#a42a680a99f2323b5fe0d59fe2696af77", null ],
    [ "Tle", "class_tle.html#a973851db0912c6d48f35b2708366e41b", null ],
    [ "Tle", "class_tle.html#a2cf8490cfb17e81f2a43c8df9836fd3e", null ],
    [ "ArgumentPerigee", "class_tle.html#a626fe801f766dc1c8cd8b56817cb6eac", null ],
    [ "BStar", "class_tle.html#a3547f03cfb1e22dbcc6ae437d2cdea4a", null ],
    [ "Eccentricity", "class_tle.html#a9aa94825e4023fb3f7625b227a432d5b", null ],
    [ "Epoch", "class_tle.html#af41fa17d78a04d40a5dc9c946b64e9e9", null ],
    [ "ExtractDouble", "class_tle.html#a6611fe24e9a1146e86b45ad74ecf183c", null ],
    [ "ExtractExponential", "class_tle.html#af793c174be9e1f816666387298e94de9", null ],
    [ "ExtractInteger", "class_tle.html#aea14c7e1c0516d31cab025afa85804c9", null ],
    [ "Inclination", "class_tle.html#aa12d7e2d8841c2356f94c59954ee8f97", null ],
    [ "Initialize", "class_tle.html#a7281f5cb7acd87f979d3f9dbcd7afb86", null ],
    [ "IntDesignator", "class_tle.html#ab0433c43a3597be923b8b6d48fdb9cd6", null ],
    [ "IsValidLineLength", "class_tle.html#af863283aeadd6d0bdb91501832274699", null ],
    [ "Line1", "class_tle.html#a0b996033ef547b7b155dd929ba9a4347", null ],
    [ "Line2", "class_tle.html#a645e03a2d73186e22253ec3a9a3b4be4", null ],
    [ "LineLength", "class_tle.html#ab84ec1256b7f8f4e7a93064f3f8fed8c", null ],
    [ "MeanAnomaly", "class_tle.html#ad33689d253722c3b53a2cbb25a1c757d", null ],
    [ "MeanMotion", "class_tle.html#a743db40b0b12a76b121680f13696bc10", null ],
    [ "MeanMotionDdt6", "class_tle.html#a26f24dec7b3c7d37f5fbc7873a12889c", null ],
    [ "MeanMotionDt2", "class_tle.html#ab836071bbee16e99ab85b00c69799113", null ],
    [ "Name", "class_tle.html#a71c53e2e26a18b846a43de24fc65029a", null ],
    [ "NoradNumber", "class_tle.html#a1f9b502465c4433473ba579cede295b4", null ],
    [ "OrbitNumber", "class_tle.html#a9577f18b83ee8fc2e42764d09f8ba18b", null ],
    [ "RightAscendingNode", "class_tle.html#aaba80937372c308113669c223d429da8", null ],
    [ "ToString", "class_tle.html#add4501600f5cf801300518b428ebfc36", null ],
    [ "argument_perigee_", "class_tle.html#a5f44791ebd8df3d8bf8bfdb1c8642816", null ],
    [ "bstar_", "class_tle.html#ac72ff7ab0e20031e3ccce3e3e2ee115c", null ],
    [ "eccentricity_", "class_tle.html#a08e7fd779a71e9542045e7cc3fe185e3", null ],
    [ "epoch_", "class_tle.html#a79fc0e0837f31c6368ee7f52de613c61", null ],
    [ "inclination_", "class_tle.html#a249b13c6fc6cbeb7c32a4dbeded4e800", null ],
    [ "int_designator_", "class_tle.html#a738f8d5a2d5dcef252db6dc22b806603", null ],
    [ "line_one_", "class_tle.html#a445c29d7a6de12891c87e4a94f3ff2a3", null ],
    [ "line_two_", "class_tle.html#a77a8450ac1dc354e0a0ed197ceb6a810", null ],
    [ "mean_anomaly_", "class_tle.html#ae6e7a72e5344a49ecd595a8256722d6f", null ],
    [ "mean_motion_", "class_tle.html#a3d506154198171bd4b71949c31a9bdb9", null ],
    [ "mean_motion_ddt6_", "class_tle.html#a208d6f365b30ea8fddd93926b4c6ccf5", null ],
    [ "mean_motion_dt2_", "class_tle.html#a0e7d08de1f595f9d423888ab140a735f", null ],
    [ "name_", "class_tle.html#a3749eb7115480bb4108700922625853c", null ],
    [ "norad_number_", "class_tle.html#a36c549b003446930173c0bb54619a3d5", null ],
    [ "orbit_number_", "class_tle.html#a0f8f3dfdc0dc86e64af844c33b16620c", null ],
    [ "right_ascending_node_", "class_tle.html#ae2b630ff24b65b0fcc1dddae92df3bf9", null ],
    [ "TLE_LEN_LINE_DATA", "class_tle.html#a41f9ea77d3cc3c771a36182ce34689fc", null ],
    [ "TLE_LEN_LINE_NAME", "class_tle.html#a97a5668127526d9d3446f5cbd3dabde6", null ]
];